country,city,hotel_name,hotel_address
Spain,Barcelona,AC Hotel Barcelona Forum a Marriott Lifestyle Hotel,Paseo Taulat 278 Sant Mart 08019 Barcelona Spain
Spain,Barcelona,AC Hotel Sants a Marriott Lifestyle Hotel,Passeig de Sant Antoni 36 40 Sants Montju c 08014 Barcelona Spain
Spain,Barcelona,Acevi Villarroel,Villarroel 106 Eixample 08011 Barcelona Spain
Spain,Barcelona,Acta Atrium Palace,Gran Via Corts Catalanes 656 Eixample 08010 Barcelona Spain
Spain,Barcelona,Acta CITY47,Nicaragua 47 Sants Montju c 08029 Barcelona Spain
Spain,Barcelona,Alexandra Barcelona A DoubleTree by Hilton,Mallorca 251 Eixample 08008 Barcelona Spain
Spain,Barcelona,Alma Barcelona GL,Mallorca 269 271 Eixample 08008 Barcelona Spain
Spain,Barcelona,Aparthotel Arai 4 Superior,Avinyo 30 Ciutat Vella 08002 Barcelona Spain
Spain,Barcelona,Aparthotel Mariano Cubi Barcelona,Mariano Cubi 62 64 Sarri St Gervasi 08006 Barcelona Spain
Spain,Barcelona,Attica 21 Barcelona Mar,Proven als 10 Sant Mart 08019 Barcelona Spain
Spain,Barcelona,Avenida Palace,Gran Via 605 Eixample 08007 Barcelona Spain
Spain,Barcelona,Axel Hotel Barcelona Urban Spa Adults Only,Aribau 33 Eixample 08011 Barcelona Spain
Spain,Barcelona,Ayre Hotel Caspe,Caspe 103 Eixample 08013 Barcelona Spain
Spain,Barcelona,Ayre Hotel Gran V a,Gran V a de les Corts Catalanes 322 Sants Montju c 08004 Barcelona Spain
Spain,Barcelona,Barcel Raval,Rambla del Raval 17 21 Ciutat Vella 08001 Barcelona Spain
Spain,Barcelona,Barcel Sants,Plaza Paisos Catalans s n Sants Montju c 08014 Barcelona Spain
Spain,Barcelona,Barcelona Princess,Avenida Diagonal 1 Sant Mart 08019 Barcelona Spain
Spain,Barcelona,Bcn Urban Hotels Gran Rosellon,Rosell n 174 176 Eixample 08036 Barcelona Spain
Spain,Barcelona,Best Western Premier Hotel Dante,Mallorca 181 Eixample 08036 Barcelona Spain
Spain,Barcelona,Capri by Fraser Barcelona,Sancho de vila 32 34 Sant Mart 08018 Barcelona Spain
Spain,Barcelona,Catalonia Atenas,Avenida Meridiana 151 Sant Mart 08026 Barcelona Spain
Spain,Barcelona,Catalonia Barcelona Plaza,Plaza Espa a 6 8 Sants Montju c 08014 Barcelona Spain
Spain,Barcelona,Catalonia Born,Rec Comtal 16 18 Ciutat Vella 08003 Barcelona Spain
Spain,Barcelona,Catalonia Diagonal Centro,Balmes 142 146 Eixample 08008 Barcelona Spain
Spain,Barcelona,Catalonia Eixample 1864,Roger de Ll ria 60 Eixample 08009 Barcelona Spain
Spain,Barcelona,Catalonia Magdalenes,Magdalenes 13 15 Ciutat Vella 08002 Barcelona Spain
Spain,Barcelona,Catalonia Park Putxet,Putget 68 Sarri St Gervasi 08023 Barcelona Spain
Spain,Barcelona,Catalonia Passeig de Gr cia 4 Sup,Gran Via de les Corts Catalanes 644 Eixample 08007 Barcelona Spain
Spain,Barcelona,Catalonia Plaza Catalunya,Bergara 11 Eixample 08002 Barcelona Spain
Spain,Barcelona,Catalonia Port,Ample 1 Pla a Duc de Medinaceli Ciutat Vella 08002 Barcelona Spain
Spain,Barcelona,Catalonia Ramblas 4 Sup,Pelai 28 Ciutat Vella 08002 Barcelona Spain
Spain,Barcelona,Catalonia Rigoletto,Sabino de Arana 22 24 Les Corts 08028 Barcelona Spain
Spain,Barcelona,Catalonia Square 4 Sup,Ronda Sant Pere 9 Eixample 08010 Barcelona Spain
Spain,Barcelona,Col n Hotel Barcelona,Avinguda Catedral 7 Ciutat Vella 08002 Barcelona Spain
Spain,Barcelona,Condes de Barcelona,Paseo de Gracia 73 Eixample 08008 Barcelona Spain
Spain,Barcelona,Cram,Aribau 54 Eixample 08011 Barcelona Spain
Spain,Barcelona,Duquesa Suites Barcelona,Pla a Antonio L pez 5 Ciutat Vella 08002 Barcelona Spain
Spain,Barcelona,Duquesa de Cardona,Passeig Colom 12 Ciutat Vella 08002 Barcelona Spain
Spain,Barcelona,Eurostars Bcn Design,Passeig de Gr cia 29 Eixample 08007 Barcelona Spain
Spain,Barcelona,Eurostars Cristal Palace,Diputaci 257 Eixample 08007 Barcelona Spain
Spain,Barcelona,Eurostars Grand Marina Hotel GL,Moll de Barcelona WTC Ciutat Vella 08039 Barcelona Spain
Spain,Barcelona,Eurostars Ramblas,La Rambla 22 24 Ciutat Vella 08002 Barcelona Spain
Spain,Barcelona,Exe Laietana Palace,Via Laietana 17 Ciutat Vella 08003 Barcelona Spain
Spain,Barcelona,Expo Hotel Barcelona,Mallorca 1 23 Sants Montju c 08014 Barcelona Spain
Spain,Barcelona,Fairmont Rey Juan Carlos I,Avenida Diagonal 661 671 Les Corts 08028 Barcelona Spain
Spain,Barcelona,Gallery Hotel,Rossell 249 Eixample 08008 Barcelona Spain
Spain,Barcelona,Gran Hotel Barcino,Jaume I 6 Ciutat Vella 08002 Barcelona Spain
Spain,Barcelona,Gran Hotel La Florida,Carretera Vallvidrera Tibidabo 83 93 Horta Guinard 08035 Barcelona Spain
Spain,Barcelona,Gran Hotel Torre Catalunya,Avenida Roma 2 4 Sants Montju c 08014 Barcelona Spain
Spain,Barcelona,Grand Hotel Central,Via Laietana 30 Ciutat Vella 08003 Barcelona Spain
Spain,Barcelona,Grupotel Gran Via 678,Gran Via de les Corts Catalanes 678 Eixample 08010 Barcelona Spain
Spain,Barcelona,Guitart Grand Passage,Muntaner 212 Eixample 08036 Barcelona Spain
Spain,Barcelona,H10 Art Gallery 4 Sup,Enric Granados 62 64 Eixample 08008 Barcelona Spain
Spain,Barcelona,H10 Cubik 4 Sup,V a Laietana 69 Ciutat Vella 08003 Barcelona Spain
Spain,Barcelona,H10 Itaca,Avenida Roma 22 30 Eixample 08015 Barcelona Spain
Spain,Barcelona,H10 Marina Barcelona,Avenida Bogatell 64 68 Sant Mart 08005 Barcelona Spain
Spain,Barcelona,H10 Metropolitan 4 Sup,Rambla Catalunya 7 9 Eixample 08007 Barcelona Spain
Spain,Barcelona,H10 Port Vell 4 Sup,Pas de Sota Muralla 9 Ciutat Vella 08003 Barcelona Spain
Spain,Barcelona,H10 Universitat,Ronda Universitat 21 Eixample 08007 Barcelona Spain
Spain,Barcelona,HCC Regente,Rambla de Catalunya 76 Eixample 08008 Barcelona Spain
Spain,Barcelona,Hotel 1898,La Rambla 109 Ciutat Vella 08002 Barcelona Spain
Spain,Barcelona,Hotel 4 Barcelona,Doctor Trueta 164 Sant Mart 08005 Barcelona Spain
Spain,Barcelona,Hotel Alimara,Berruguete 126 Horta Guinard 08035 Barcelona Spain
Spain,Barcelona,Hotel Arts Barcelona,Marina 19 21 08005 Barcelona Spain
Spain,Barcelona,Hotel Balmoral,Via Augusta 5 08006 Barcelona Spain
Spain,Barcelona,Hotel Barcelona Catedral,Capellans 4 Ciutat Vella 08002 Barcelona Spain
Spain,Barcelona,Hotel Barcelona Universal,Avinguda Paral lel 76 78 Ciutat Vella 08001 Barcelona Spain
Spain,Barcelona,Hotel Best Western PLUS Alfa Aeropuerto,Calle K s n Entrada principal Mercabarna Sants Montju c 08040 Barcelona Spain
Spain,Barcelona,Hotel Casa Bonay,Gran Via de les Corts Catalanes 700 Eixample 08010 Barcelona Spain
Spain,Barcelona,Hotel Casa Camper,Elisabets 11 Ciutat Vella 08001 Barcelona Spain
Spain,Barcelona,Hotel Casa Fuster G L Monumento,Passeig de Gracia 132 Gr cia 08008 Barcelona Spain
Spain,Barcelona,Hotel Espa a Ramblas,Sant Pau 9 11 Ciutat Vella 08001 Barcelona Spain
Spain,Barcelona,Hotel Front Maritim,Paseo Garc a I Faria 69 71 Sant Mart 08019 Barcelona Spain
Spain,Barcelona,Hotel Grums Barcelona,Palaud ries 26 Sants Montju c 08004 Barcelona Spain
Spain,Barcelona,Hotel Midmost,Pelayo 14 Ciutat Vella 08001 Barcelona Spain
Spain,Barcelona,Hotel Miramar Barcelona GL,Plaza Carlos Iba ez 3 Sants Montju c 08038 Barcelona Spain
Spain,Barcelona,Hotel Omm,Rossell 265 Eixample 08008 Barcelona Spain
Spain,Barcelona,Hotel Pulitzer,Bergara 8 Eixample 08002 Barcelona Spain
Spain,Barcelona,Hotel Regina,Bergara 2 4 Eixample 08002 Barcelona Spain
Spain,Barcelona,Hotel Rekord,Muntaner 352 Sarri St Gervasi 08021 Barcelona Spain
Spain,Barcelona,Hotel SB Diagonal Zero Barcelona 4 Sup,Pla a de Llevant s n Sant Mart 08019 Barcelona Spain
Spain,Barcelona,Hotel SB Icaria Barcelona,Avinguda Icaria 195 Sant Mart 08005 Barcelona Spain
Spain,Barcelona,Hotel Spa Villa Olimpica Suites,Pallars 121 125 Sant Mart 08018 Barcelona Spain
Spain,Barcelona,Hotel Vilamar ,Vilamari 34 36 Eixample 08015 Barcelona Spain
Spain,Barcelona,Hotel Villa Emilia,Calabria 115 117 Eixample 08015 Barcelona Spain
Spain,Barcelona,Hotel Well and Come,Girona 158 Eixample 08037 Barcelona Spain
Spain,Barcelona,Hotel mbit Barcelona,Roger de Ll ria 17 Eixample 08010 Barcelona Spain
Spain,Barcelona,Ilunion Almirante,Via Laietana 42 Ciutat Vella 08003 Barcelona Spain
Spain,Barcelona,Ilunion Barcelona,Ramon Turr 196 198 Sant Mart 08005 Barcelona Spain
Spain,Barcelona,K K Hotel Picasso,Passeig de Picasso 26 30 Ciutat Vella 08003 Barcelona Spain
Spain,Barcelona,Majestic Hotel Spa Barcelona GL,Passeig de Gracia 68 Eixample 08007 Barcelona Spain
Spain,Barcelona,Mandarin Oriental Barcelona,Passeig de Gr cia 38 40 Eixample 08007 Barcelona Spain
Spain,Barcelona,Medinaceli,Duc De Medinaceli 8 Ciutat Vella 08002 Barcelona Spain
Spain,Barcelona,Mercer Hotel Barcelona,Dels Lledo 7 Ciutat Vella 08003 Barcelona Spain
Spain,Barcelona,Monument Hotel,Paseo de Gracia 75 Eixample 08008 Barcelona Spain
Spain,Barcelona,NH Barcelona Stadium,Travessera de les Corts 150 152 Les Corts 08028 Barcelona Spain
Spain,Barcelona,NH Collection Barcelona Gran Hotel Calder n,Rambla Catalunya 26 Eixample 08007 Barcelona Spain
Spain,Barcelona,NH Hesperia Barcelona Presidente,Avenida Diagonal 570 Sarri St Gervasi 08021 Barcelona Spain
Spain,Barcelona,NH Hesperia Barcelona del Mar,Espronceda 6 Sant Mart 08005 Barcelona Spain
Spain,Barcelona,Negresco Princess 4 Sup,Roger de Lluria 16 18 Eixample 08010 Barcelona Spain
Spain,Barcelona,Occidental Atenea Mar Adults Only,Paseo Garc a Faria 37 47 Sant Mart 08019 Barcelona Spain
Spain,Barcelona,Olivia Balmes Hotel,Balmes 117 Eixample 08008 Barcelona Spain
Spain,Barcelona,Olivia Plaza Hotel,Plaza de Catalunya 19 Ciutat Vella 08002 Barcelona Spain
Spain,Barcelona,Onix Liceo,Nou de la Rambla 36 Ciutat Vella 08001 Barcelona Spain
Spain,Barcelona,Pestana Arena Barcelona,Consell de Cent 51 53 Sants Montju c 08014 Barcelona Spain
Spain,Barcelona,Petit Palace Barcelona,Roger De Lluria 21 Esq Gran Via 662 Eixample 08037 Barcelona Spain
Spain,Barcelona,Petit Palace Boqueria Garden,Boquer a 10 Ciutat Vella 08002 Barcelona Spain
Spain,Barcelona,Petit Palace Museum,Diputacion 250 Eixample 08007 Barcelona Spain
Spain,Barcelona,Pol Grace Hotel,Guillem Tell 49 Sarri St Gervasi 08006 Barcelona Spain
Spain,Barcelona,Pullman Barcelona Skipper,Avenida Litoral 10 Ciutat Vella 08005 Barcelona Spain
Spain,Barcelona,Room Mate Anna,Carrer de Arag 271 Eixample 08007 Barcelona Spain
Spain,Barcelona,Royal Passeig de Gracia,Passeig de Gracia 84 Eixample 08008 Barcelona Spain
Spain,Barcelona,Royal Ramblas,Las Ramblas 117 Ciutat Vella 08002 Barcelona Spain
Spain,Barcelona,Sall s Hotel Pere IV,Pallars 128 130 Sant Mart 08018 Barcelona Spain
Spain,Barcelona,Sansi Diputacio,234 Diputacio Eixample 08007 Barcelona Spain
Spain,Barcelona,Senator Barcelona Spa Hotel,Cardenal Reig 11 Les Corts 08028 Barcelona Spain
Spain,Barcelona,Silken Gran Hotel Havana,Gran V a de Les Corts Catalanes 647 Eixample 08010 Barcelona Spain
Spain,Barcelona,Silken Ramblas,Pintor Fortuny 13 Ciutat Vella 08001 Barcelona Spain
Spain,Barcelona,Sixtytwo Hotel,Passeig de Gracia 62 Eixample 08007 Barcelona Spain
Spain,Barcelona,Sunotel Central,Gran V a De Les Corts Catalanes 570 Eixample 08011 Barcelona Spain
Spain,Barcelona,Sunotel Club Central,Valencia 157 Eixample 08011 Barcelona Spain
Spain,Barcelona,TWO Hotel Barcelona by Axel 4 Sup Adults Only,Calabria 90 92 Eixample 08015 Barcelona Spain
Spain,Barcelona,The Corner Hotel,Mallorca 178 Eixample 08036 Barcelona Spain
Spain,Barcelona,The Gates Diagonal Barcelona,Avenida Diagonal 205 Sant Mart 08018 Barcelona Spain
Spain,Barcelona,The Wittmore Adults Only,Riudarenes 7 Ciutat Vella 08002 Barcelona Spain
Spain,Barcelona,U232 Hotel,Comte d Urgell 232 Eixample 08036 Barcelona Spain
Spain,Barcelona,Vincci Bit,Josep Pla 69 Sant Mart 08019 Barcelona Spain
Spain,Barcelona,Vincci Mae,Avenida Diagonal 596 Sarri St Gervasi 08021 Barcelona Spain
Spain,Barcelona,Vincci Maritimo,Llull 340 Sant Mart 08019 Barcelona Spain
Spain,Barcelona,W Barcelona,Pla a Rosa dels Vents 1 Passeig Joan de Borbo Ciutat Vella 08039 Barcelona Spain
Spain,Barcelona,Wilson Boutique Hotel,Avenida Diagonal 568 Sarri St Gervasi 08021 Barcelona Spain
Spain,Barcelona,Zenit Barcelona,Santal 8 Sarri St Gervasi 08021 Barcelona Spain
Austria,Vienna,25hours Hotel beim MuseumsQuartier,Lerchenfelder Stra e 1 3 07 Neubau 1070 Vienna Austria
Austria,Vienna,Alma Boutique Hotel,Hafnersteig 7 01 Innere Stadt 1010 Vienna Austria
Austria,Vienna,Aparthotel Adagio Vienna City,Uraniastra e 2 01 Innere Stadt 1010 Vienna Austria
Austria,Vienna,Appartement Hotel an der Riemergasse,Riemergasse 8 01 Innere Stadt 1010 Vienna Austria
Austria,Vienna,Arion Cityhotel Vienna und Appartements,Hintschiggasse 1 10 Favoriten 1100 Vienna Austria
Austria,Vienna,Atlantis Hotel Vienna,Wurzbachgasse 21 15 Rudolfsheim F nfhaus 1150 Vienna Austria
Austria,Vienna,Austria Trend Hotel Anatol Wien,Webgasse 26 06 Mariahilf 1060 Vienna Austria
Austria,Vienna,Austria Trend Hotel Astoria Wien,K rntner Stra e 32 34 01 Innere Stadt 1010 Vienna Austria
Austria,Vienna,Austria Trend Hotel Bosei Wien,Gutheil Schoder Gasse 7B 10 Favoriten 1100 Vienna Austria
Austria,Vienna,Austria Trend Hotel Doppio Wien,Rennweg 99 Rinnboeckstrasse 1 03 Landstra e 1030 Vienna Austria
Austria,Vienna,Austria Trend Hotel Europa Wien,K rntnerstra e 18 Eingang Neuer Markt 3 01 Innere Stadt 1010 Vienna Austria
Austria,Vienna,Austria Trend Hotel Park Royal Palace Vienna,Schlossallee 8 14 Penzing 1140 Vienna Austria
Austria,Vienna,Austria Trend Hotel Rathauspark Wien,Rathausstra e 17 01 Innere Stadt 1010 Vienna Austria
Austria,Vienna,Austria Trend Hotel Savoyen Vienna,Rennweg 16 03 Landstra e 1030 Vienna Austria
Austria,Vienna,Austria Trend Parkhotel Sch nbrunn Wien,Hietzinger Hauptstra e 10 14 13 Hietzing 1130 Vienna Austria
Austria,Vienna,BEST WESTERN PLUS Amedia Wien,Landstra er Hauptstra e 155 03 Landstra e 1030 Vienna Austria
Austria,Vienna,Courtyard by Marriott Vienna Prater Messe,Trabrennstra e 4 02 Leopoldstadt 1020 Vienna Austria
Austria,Vienna,Das Opernring Hotel,Opernring 11 01 Innere Stadt 1010 Vienna Austria
Austria,Vienna,Das Triest Hotel,Wiedner Hauptstra e 12 04 Wieden 1040 Vienna Austria
Austria,Vienna,Der Wilhelmshof,Kleine Stadtgutgasse 4 02 Leopoldstadt 1020 Vienna Austria
Austria,Vienna,Exe Vienna,Ottakringer Stra e 34 36 17 Hernals 1170 Vienna Austria
Austria,Vienna,Falkensteiner Hotel Wien Margareten,Margareteng rtel 142 05 Margareten 1050 Vienna Austria
Austria,Vienna,Falkensteiner Hotel Wien Zentrum Schottenfeld,Schottenfeldgasse 74 07 Neubau 1070 Vienna Austria
Austria,Vienna,Fleming s Conference Hotel Wien,Neubaug rtel 26 28 07 Neubau 1070 Vienna Austria
Austria,Vienna,FourSide Hotel Vienna City Center,Grieshofgasse 11 12 Meidling 1120 Vienna Austria
Austria,Vienna,Grand Ferdinand Vienna Your Hotel In The City Center,Schubertring 10 12 01 Innere Stadt 1010 Vienna Austria
Austria,Vienna,Hilton Vienna,Am Stadtpark 1 03 Landstra e 1030 Vienna Austria
Austria,Vienna,Hilton Vienna Danube Waterfront,Handelskai 269 02 Leopoldstadt 1020 Vienna Austria
Austria,Vienna,Hollmann Beletage Design Boutique,K llnerhofgasse 6 01 Innere Stadt 1010 Vienna Austria
Austria,Vienna,Hotel Am Parkring,Parkring 12 01 Innere Stadt 1010 Vienna Austria
Austria,Vienna,Hotel Amadeus,Wildpretmarkt 5 01 Innere Stadt 1010 Vienna Austria
Austria,Vienna,Hotel Ambassador,K rntner Stra e 22 01 Innere Stadt 1010 Vienna Austria
Austria,Vienna,Hotel Beethoven Wien,Papagenogasse 6 06 Mariahilf 1060 Vienna Austria
Austria,Vienna,Hotel Bellevue Wien,Althanstra e 5 09 Alsergrund 1090 Vienna Austria
Austria,Vienna,Hotel Boltzmann,Boltzmanngasse 8 09 Alsergrund 1090 Vienna Austria
Austria,Vienna,Hotel Capricorno,Schwedenplatz 3 4 01 Innere Stadt 1010 Vienna Austria
Austria,Vienna,Hotel Das Tigra,Tiefer Graben 14 20 01 Innere Stadt 1010 Vienna Austria
Austria,Vienna,Hotel Erzherzog Rainer,Wiedner Hauptstr 27 29 04 Wieden 1040 Vienna Austria
Austria,Vienna,Hotel K nig von Ungarn,Schulerstra e 10 01 Innere Stadt 1010 Vienna Austria
Austria,Vienna,Hotel Kaiserin Elisabeth,Weihburggasse 3 01 Innere Stadt 1010 Vienna Austria
Austria,Vienna,Hotel Kavalier,Linzer Stra e 165 14 Penzing 1140 Vienna Austria
Austria,Vienna,Hotel Mailberger Hof,Annagasse 7 01 Innere Stadt 1010 Vienna Austria
Austria,Vienna,Hotel Palais Strudlhof,Pasteurgasse 1 09 Alsergrund 1090 Vienna Austria
Austria,Vienna,Hotel Prinz Eugen,Wiedner G rtel 14 04 Wieden 1040 Vienna Austria
Austria,Vienna,Hotel Regina,Rooseveltplatz 15 09 Alsergrund 1090 Vienna Austria
Austria,Vienna,Hotel Sacher Wien,Philharmoniker Stra e 4 01 Innere Stadt 1010 Vienna Austria
Austria,Vienna,Hotel Sans Souci Wien,Burggasse 2 07 Neubau 1070 Vienna Austria
Austria,Vienna,Hotel Schani Wien,Karl Popper Stra e 22 10 Favoriten 1100 Vienna Austria
Austria,Vienna,Hotel Stefanie,Taborstra e 12 02 Leopoldstadt 1020 Vienna Austria
Austria,Vienna,Hotel Topazz,Lichtensteg 3 01 Innere Stadt 1010 Vienna Austria
Austria,Vienna,Hotel ViennArt am Museumsquartier,Breite Gasse 9 07 Neubau 1070 Vienna Austria
Austria,Vienna,Hotel Vienna,Gro e Stadtgutgasse 31 02 Leopoldstadt 1020 Vienna Austria
Austria,Vienna,Hotel Wandl,Petersplatz 9 01 Innere Stadt 1010 Vienna Austria
Austria,Vienna,Hotel de France Wien,Schottenring 3 01 Innere Stadt 1010 Vienna Austria
Austria,Vienna,Imperial Riding School Renaissance Vienna Hotel,Ungargasse 60 03 Landstra e 1030 Vienna Austria
Austria,Vienna,IntercityHotel Wien,Mariahilfer Stra e 122 Ecke Kaiserstra e 1 3 07 Neubau 1070 Vienna Austria
Austria,Vienna,JUFA Hotel Wien,Mautner Markhof Gasse 50 11 Simmering 1110 Vienna Austria
Austria,Vienna,K K Palais Hotel,Rudolfsplatz 11 01 Innere Stadt 1010 Vienna Austria
Austria,Vienna,Leonardo Hotel Vienna,Matrosengasse 6 8 06 Mariahilf 1060 Vienna Austria
Austria,Vienna,Lindner Hotel Am Belvedere,Rennweg 12 03 Landstra e 1030 Vienna Austria
Austria,Vienna,Melia Vienna,Donau City Stra e 7 22 Donaustadt 1220 Vienna Austria
Austria,Vienna,Mercure Hotel Raphael Wien,Wallgasse 23 06 Mariahilf 1060 Vienna Austria
Austria,Vienna,Mercure Secession Wien,Getreidemarkt 5 06 Mariahilf 1060 Vienna Austria
Austria,Vienna,Mercure Wien Zentrum,Fleischmarkt 1a 01 Innere Stadt 1010 Vienna Austria
Austria,Vienna,NH Collection Wien Zentrum,Mariahilfer Stra e 78 07 Neubau 1070 Vienna Austria
Austria,Vienna,NH Danube City,Wagramer Stra e 21 22 Donaustadt 1220 Vienna Austria
Austria,Vienna,NH Wien Belvedere,Rennweg 12a 03 Landstra e 1030 Vienna Austria
Austria,Vienna,NH Wien City,Mariahilfer Stra e 32 34 07 Neubau 1070 Vienna Austria
Austria,Vienna,Palais Hansen Kempinski Vienna,Schottenring 24 01 Innere Stadt 1010 Vienna Austria
Austria,Vienna,Park Hyatt Vienna,Am Hof 2 01 Innere Stadt 1010 Vienna Austria
Austria,Vienna,Park Inn by Radisson Uno City Vienna,Wagramer Stra e 16 18 22 Donaustadt 1220 Vienna Austria
Austria,Vienna,Pertschy Palais Hotel,Habsburgergasse 5 01 Innere Stadt 1010 Vienna Austria
Austria,Vienna,Radisson Blu Style Hotel Vienna,Herrengasse 12 01 Innere Stadt 1010 Vienna Austria
Austria,Vienna,Schlosshotel R mischer Kaiser,Annagasse 16 01 Innere Stadt 1010 Vienna Austria
Austria,Vienna,Senator Hotel Vienna,Hernalser Hauptstra e 105 17 Hernals 1170 Vienna Austria
Austria,Vienna,Sofitel Vienna Stephansdom,Praterstra e 1 02 Leopoldstadt 1020 Vienna Austria
Austria,Vienna,Steigenberger Hotel Herrenhof,Herrengasse 10 01 Innere Stadt 1010 Vienna Austria
Austria,Vienna,Suite Hotel 900 m zur Oper,Wiedner Hauptstra e 44 04 Wieden 1040 Vienna Austria
Austria,Vienna,The Harmonie Vienna,Harmoniegasse 5 7 09 Alsergrund 1090 Vienna Austria
Austria,Vienna,Vienna Marriott Hotel,Parkring 12a 01 Innere Stadt 1010 Vienna Austria
Austria,Vienna,Vienna Sporthotel,Baumgasse 83 03 Landstra e 1030 Vienna Austria
United Kingdom,London,11 Cadogan Gardens,11 Cadogan Gardens Sloane Square Kensington and Chelsea London SW3 2RJ United Kingdom
United Kingdom,London,45 Park Lane Dorchester Collection,45 Park Lane Westminster Borough London W1K 1PN United Kingdom
United Kingdom,London,88 Studios,88 Holland Road Kensington and Chelsea London W14 8BN United Kingdom
United Kingdom,London,Ace Hotel London Shoreditch,100 Shoreditch High Street Hackney London E1 6JQ United Kingdom
United Kingdom,London,Adria Boutique Hotel,88 Queens Gate Kensington and Chelsea London SW7 5AB United Kingdom
United Kingdom,London,Aloft London Excel,One Eastern Gateway Royal Victoria Dock Newham London E16 1FR United Kingdom
United Kingdom,London,Amba Hotel Charing Cross,The Strand Westminster Borough London WC2N 5HX United Kingdom
United Kingdom,London,Amba Hotel Marble Arch,Bryanston Street Marble Arch Westminster Borough London W1H 7EH United Kingdom
United Kingdom,London,Ambassadors Bloomsbury,12 Upper Woburn Place Camden London WC1H 0HX United Kingdom
United Kingdom,London,Andaz London Liverpool Street,40 Liverpool Street City of London London EC2M 7QN United Kingdom
United Kingdom,London,Apex City Of London Hotel,No 1 Seething Lane City of London London EC3N 4AX United Kingdom
United Kingdom,London,Apex London Wall Hotel,7 9 Copthall Avenue City of London London EC2R 7NJ United Kingdom
United Kingdom,London,Apex Temple Court Hotel,1 2 Serjeant s Inn Fleet Street City of London London EC4Y 1LL United Kingdom
United Kingdom,London,Arbor City,12 Osborn Street Aldgate East Tower Hamlets London E1 6TE United Kingdom
United Kingdom,London,Arbor Hyde Park,36 37 Lancaster Gate Westminster Borough London W2 3NA United Kingdom
United Kingdom,London,Ashburn Hotel,111 Cromwell Road Kensington and Chelsea London SW7 4DP United Kingdom
United Kingdom,London,Avo Hotel,82 Dalston Lane Hackney London E8 3AH United Kingdom
United Kingdom,London,BEST WESTERN Maitrise Hotel Maida Vale,53 59 Kilburn High Road Maida Vale London Camden London NW6 5SB United Kingdom
United Kingdom,London,Baglioni Hotel London The Leading Hotels of the World,60 Hyde Park gate Kensington and Chelsea London SW7 5BB United Kingdom
United Kingdom,London,Batty Langley s,12 Folgate Street City of London London E1 6BX United Kingdom
United Kingdom,London,Bermondsey Square Hotel A Bespoke Hotel,Tower Bridge Road Southwark London SE1 3UN United Kingdom
United Kingdom,London,Best Western Maitrise Hotel Edgware Road,346 348 Edgware Road Westminster Borough London W2 1EA United Kingdom
United Kingdom,London,Best Western Mornington Hotel Hyde Park,12 Lancaster Gate Lancaster Gate Westminster Borough London W2 3LG United Kingdom
United Kingdom,London,Best Western PLUS Epping Forest,Epping Forest 30 Oak Hill London IG8 9NY United Kingdom
United Kingdom,London,Best Western Palm Hotel,64 76 Hendon Way London NW2 2NL United Kingdom
United Kingdom,London,Best Western Plus Seraphine Hammersmith Hotel,84 King Street Hammersmith and Fulham London W6 0QW United Kingdom
United Kingdom,London,Best Western Seraphine Kensington Olympia,225 High Street Kensington Kensington and Chelsea London W8 6SA United Kingdom
United Kingdom,London,Best Western The Boltons Hotel London Kensington,19 21 Penywern Road Kensington and Chelsea London SW5 9TT United Kingdom
United Kingdom,London,Blakemore Hyde Park,30 Leinster Gardens Bayswater Westminster Borough London W2 3AN United Kingdom
United Kingdom,London,Blakes Hotel,33 Roland Gardens Kensington and Chelsea London SW7 3PF United Kingdom
United Kingdom,London,Bloomsbury Palace Hotel,29 31 Gower Street Camden London WC1E 6HG United Kingdom
United Kingdom,London,Britannia International Hotel Canary Wharf,163 Marsh Wall Docklands Tower Hamlets London E14 9SJ United Kingdom
United Kingdom,London,COMO Metropolitan London,Old Park Lane Westminster Borough London W1K 1LB United Kingdom
United Kingdom,London,Caesar Hotel,26 33 Queens Gardens Westminster Borough London W2 3BE United Kingdom
United Kingdom,London,Charlotte Street Hotel,15 17 Charlotte Street Hotel Westminster Borough London W1T 1RJ United Kingdom
United Kingdom,London,Chiswick Rooms,407 Goldhawk Rd Chiswick London W6 0SA United Kingdom
United Kingdom,London,Claridge s,41 43 Brook Street Westminster Borough London W1K 4HJ United Kingdom
United Kingdom,London,Clayton Crown Hotel London,152 Cricklewood Broadway Cricklewood London NW2 3ED United Kingdom
United Kingdom,London,Clayton Hotel Chiswick,626 Chiswick High St Chiswick London W4 5RY United Kingdom
United Kingdom,London,Club Quarters Hotel Gracechurch,7 Gracechurch Street City of London London EC3V 0DR United Kingdom
United Kingdom,London,Club Quarters Hotel Lincoln s Inn Fields,61 Lincoln s Inn Fields Camden London WC2A 3JW United Kingdom
United Kingdom,London,Club Quarters Hotel St Paul s,24 Ludgate Hill City of London London EC4M 7DR United Kingdom
United Kingdom,London,Club Quarters Hotel Trafalgar Square,8 Northumberland Avenue Westminster Borough London WC2N 5BY United Kingdom
United Kingdom,London,Comfort Inn Suites Kings Cross St Pancras,31 33 Argyle Street Camden London WC1H 8EP United Kingdom
United Kingdom,London,Commodore Hotel,50 Lancaster Gate Westminster Borough London W2 3NA United Kingdom
United Kingdom,London,Conrad London St James,22 28 Broadway Westminster Borough London SW1H 0BH United Kingdom
United Kingdom,London,Copthorne Tara Hotel London Kensington,Scarsdale Place Kensington Kensington and Chelsea London W8 5SY United Kingdom
United Kingdom,London,Corus Hotel Hyde Park,Lancaster Gate Westminster Borough London W2 3LG United Kingdom
United Kingdom,London,Courthouse Hotel London,19 21 Gt Marlborough St Westminster Borough London W1F 7HL United Kingdom
United Kingdom,London,Courthouse Hotel Shoreditch,335 337 Old Street Hackney London EC1V 9LL United Kingdom
United Kingdom,London,Covent Garden Hotel,10 Monmouth Street Camden London WC2H 9HB United Kingdom
United Kingdom,London,Crowne Plaza London Battersea,Bridges Court Road Battersea London SW11 3BE United Kingdom
United Kingdom,London,Crowne Plaza London Docklands,Royal Victoria Dock Western Gateway Newham London E16 1AL United Kingdom
United Kingdom,London,Crowne Plaza London Kensington,100 Cromwell Road Kensington and Chelsea London SW7 4ER United Kingdom
United Kingdom,London,Crowne Plaza London Kings Cross,1 Kings Cross Road Islington London WC1X 9HX United Kingdom
United Kingdom,London,Crowne Plaza London The City,19 New Bridge Street City of London London EC4V 6DB United Kingdom
United Kingdom,London,Danubius Hotel Regents Park,18 Lodge Road Near Baker Street And Marylebone Westminster Borough London NW8 7JT United Kingdom
United Kingdom,London,De Vere Devonport House,King William Walk Greenwich London SE10 9JW United Kingdom
United Kingdom,London,Dorsett Shepherds Bush,58 Shepherds Bush Green Hammersmith and Fulham London W12 8QE United Kingdom
United Kingdom,London,DoubleTree By Hilton London Excel,Excel 2 Festoon Way Royal Victoria Dock Newham London E16 1RH United Kingdom
United Kingdom,London,DoubleTree by Hilton Hotel London Marble Arch,4 Bryanston St Marble Arch Westminster Borough London W1H 7BY United Kingdom
United Kingdom,London,DoubleTree by Hilton Hotel London Tower of London,7 Pepys Street City of London London EC3N 4AF United Kingdom
United Kingdom,London,DoubleTree by Hilton London Docklands Riverside,265 Rotherhithe Street Southwark London SE16 5HW United Kingdom
United Kingdom,London,DoubleTree by Hilton London Ealing,2 8 Hanger Lane Ealing Common London W5 3HN United Kingdom
United Kingdom,London,DoubleTree by Hilton London Hyde Park,150 Bayswater Road Kensington and Chelsea London W2 4RT United Kingdom
United Kingdom,London,DoubleTree by Hilton London Islington,60 Pentonville Road Islington London N1 9LA United Kingdom
United Kingdom,London,DoubleTree by Hilton London Victoria,2 Bridge Place Victoria Westminster Borough London SW1V 1QA United Kingdom
United Kingdom,London,DoubleTree by Hilton London West End,92 Southampton Row Camden London WC1B 4BH United Kingdom
United Kingdom,London,DoubleTree by Hilton London Westminster,30 John Islip St Westminster Borough London SW1P 4DD United Kingdom
United Kingdom,London,Doubletree By Hilton London Greenwich,Catherine Grove Greenwich Greenwich London SE10 8BB United Kingdom
United Kingdom,London,Doubletree by Hilton London Kensington,100 Queen s Gate Kensington and Chelsea London SW7 5AG United Kingdom
United Kingdom,London,Durrants Hotel,George Street Westminster Borough London W1H 5BJ United Kingdom
United Kingdom,London,Eccleston Square Hotel,37 Eccleston Square Westminster Borough London SW1V 1PB United Kingdom
United Kingdom,London,Egerton House,17 19 Egerton Terrace Knightsbridge Kensington and Chelsea London SW3 2BX United Kingdom
United Kingdom,London,Fielding Hotel,4 Broad Court Bow Street Covent Garden Westminster Borough London WC2B 5QZ United Kingdom
United Kingdom,London,Fifty Four Boutique Hotel,54 Queens Gate Kensington and Chelsea London SW7 5JW United Kingdom
United Kingdom,London,Flemings Mayfair,Half Moon Street Westminster Borough London W1J 7BH United Kingdom
United Kingdom,London,Gainsborough Hotel,7 11 Queensberry Place Kensington and Chelsea London SW7 2DL United Kingdom
United Kingdom,London,Georgian House Hotel,35 39 St Georges Drive Westminster Borough London SW1V 4DG United Kingdom
United Kingdom,London,Good Hotel London,Western Gateway Newham London E16 1FA United Kingdom
United Kingdom,London,Goodenough Club,23 Mecklenburgh Square Camden London WC1N 2AD United Kingdom
United Kingdom,London,Grand Royale London Hyde Park,1 Inverness Terrace Westminster Borough London W2 3JP United Kingdom
United Kingdom,London,Grange Beauchamp Hotel,24 27 Bedford Place Bloomsbury Camden London WC1B 5JH United Kingdom
United Kingdom,London,Grange City Hotel,Coopers Row City of London London EC3N 2BQ United Kingdom
United Kingdom,London,Grange Clarendon Hotel,34 37 Bedford Place Bloomsbury Camden London WC1B 5JR United Kingdom
United Kingdom,London,Grange Fitzrovia Hotel,20 28 Bolsover Street Westminster Borough London W1W 5NB United Kingdom
United Kingdom,London,Grange Holborn Hotel,Southampton Row Bloomsbury Camden London WC1B 4AR United Kingdom
United Kingdom,London,Grange Langham Court Hotel,31 35 Langham Street Westminster Borough London W1W 6BU United Kingdom
United Kingdom,London,Grange Rochester Hotel,69 Vincent Square Westminster Borough London SW1P 2PA United Kingdom
United Kingdom,London,Grange St Paul s Hotel,10 Godliman Street City of London London EC4V 5AJ United Kingdom
United Kingdom,London,Grange Strathmore Hotel,41 Queens Gate Gardens Kensington and Chelsea London SW7 5NB United Kingdom
United Kingdom,London,Grange Tower Bridge Hotel,45 Prescot Street City of London London E1 8GP United Kingdom
United Kingdom,London,Grange Wellington Hotel,71 Vincent Square Westminster Borough London SW1P 2PA United Kingdom
United Kingdom,London,Grange White Hall Hotel,2 5 Montague Street Bloomsbury Camden London WC1B 5BU United Kingdom
United Kingdom,London,Great Northern Hotel A Tribute Portfolio Hotel London,King s Cross St Pancras International Station Pancras Road Camden London N1C 4TB United Kingdom
United Kingdom,London,Great St Helen Hotel,36 Great st Helens City of London London EC3A 6AP United Kingdom
United Kingdom,London,Grosvenor House A JW Marriott Hotel,Park Lane Westminster Borough London W1K 7TN United Kingdom
United Kingdom,London,H10 London Waterloo,284 To 302 Waterloo Road Southwark London SE1 8RQ United Kingdom
United Kingdom,London,Haymarket Hotel,1 Suffolk Place Westminster Borough London SW1Y 4HX United Kingdom
United Kingdom,London,Hazlitt s,6 Frith Street Soho Westminster Borough London W1D 3JA United Kingdom
United Kingdom,London,Henley House Hotel,30 Barkston Gardens Kensington and Chelsea London SW5 0EN United Kingdom
United Kingdom,London,Henry VIII,23 Leinster Gardens Westminster Borough London W2 3AN United Kingdom
United Kingdom,London,Hilton London Angel Islington,53 Upper Street Islington London N1 0UY United Kingdom
United Kingdom,London,Hilton London Bankside,2 8 Great Suffolk Street Southwark London SE1 0UG United Kingdom
United Kingdom,London,Hilton London Canary Wharf,South Quay Marsh Wall Tower Hamlets London E14 9SH United Kingdom
United Kingdom,London,Hilton London Euston,17 18 Upper Woburn Place Camden London WC1H 0HT United Kingdom
United Kingdom,London,Hilton London Green Park,Half Moon Street Westminster Borough London W1J 7BN United Kingdom
United Kingdom,London,Hilton London Hyde Park,129 Bayswater Road London W2 4RJ United Kingdom
United Kingdom,London,Hilton London Kensington Hotel,Holland Park Avenue Kensington and Chelsea London W11 4UL United Kingdom
United Kingdom,London,Hilton London Metropole,225 Edgware Road Westminster Borough London W2 1JU United Kingdom
United Kingdom,London,Hilton London Olympia,380 Kensington High Street Kensington and Chelsea London W14 8NL United Kingdom
United Kingdom,London,Hilton London Paddington,146 Praed Street Westminster Borough London W2 1EE United Kingdom
United Kingdom,London,Hilton London Tower Bridge,5 More London Place Tooley Street Southwark London SE1 2BY United Kingdom
United Kingdom,London,Hilton London Wembley,Lakeside Way Brent London HA9 0BU United Kingdom
United Kingdom,London,Holiday Inn London Bloomsbury,Coram Street Camden London WC1N 1HT United Kingdom
United Kingdom,London,Holiday Inn London Brent Cross,Tilling Road London NW2 1LP United Kingdom
United Kingdom,London,Holiday Inn London Camden Lock,30 Jamestown Road Camden London NW1 7BY United Kingdom
United Kingdom,London,Holiday Inn London Kensington,Wrights Lane Kensington and Chelsea London W8 5SP United Kingdom
United Kingdom,London,Holiday Inn London Kensington Forum,97 Cromwell Road Kensington and Chelsea London SW7 4DN United Kingdom
United Kingdom,London,Holiday Inn London Mayfair,3 Berkeley Street Westminster Borough London W1J 8NE United Kingdom
United Kingdom,London,Holiday Inn London Oxford Circus,57 59 Welbeck Street Westminster Borough London W1G 9BL United Kingdom
United Kingdom,London,Holiday Inn London Regent s Park,Carburton Street Westminster Borough London W1W 5EE United Kingdom
United Kingdom,London,Holiday Inn London Stratford City,10a Chestnut Plaza Westfield Stratford City Olympic Park Newham London E20 1GL United Kingdom
United Kingdom,London,Holiday Inn London Wembley,Empire Way Wembley Brent London HA9 8DS United Kingdom
United Kingdom,London,Holiday Inn London West,4 Portal Way Gypsy Corner A40 London W3 6RT United Kingdom
United Kingdom,London,Holiday Inn London Whitechapel,5 Cavell Street Tower Hamlets London E1 2BP United Kingdom
United Kingdom,London,Hotel 55,Hanger Lane Ealing London W5 3HL United Kingdom
United Kingdom,London,Hotel 82 London,82 Gloucester Place Westminster Borough London W1U 6HN United Kingdom
United Kingdom,London,Hotel Cafe Royal,68 Regent Street West End Mayfair Westminster Borough London W1B 4DY United Kingdom
United Kingdom,London,Hotel Cavendish,75 Gower Street Camden London WC1E 6HJ United Kingdom
United Kingdom,London,Hotel Indigo London Kensington,34 44 Barkston Gardens Kensington and Chelsea London SW5 0EW United Kingdom
United Kingdom,London,Hotel Indigo London Paddington,16 London Street Paddington Westminster Borough London W2 1HL United Kingdom
United Kingdom,London,Hotel Indigo London Tower Hill,142 Minories City of London London EC3N 1LS United Kingdom
United Kingdom,London,Hotel La Place,17 Nottingham Place Westminster Borough London W1U 5LG United Kingdom
United Kingdom,London,Hotel Moonlight,9 Knaresborough Place Kensington and Chelsea London SW5 0TP United Kingdom
United Kingdom,London,Hotel Xanadu,26 42 Bond Street Ealing London W5 5AA United Kingdom
United Kingdom,London,Hotel Xenia Autograph Collection,160 Cromwell Road Kensington Kensington and Chelsea London SW5 0TL United Kingdom
United Kingdom,London,Hotel du Vin Cannizaro House Wimbledon,Westside Wimbledon Common Wimbledon London SW19 4UE United Kingdom
United Kingdom,London,Hyatt Regency London The Churchill,30 Portman Square Westminster Borough London W1H 7BH United Kingdom
United Kingdom,London,Innkeeper s Lodge London Greenwich,291 Greenwich High Road Greenwich Greenwich London SE10 8NA United Kingdom
United Kingdom,London,InterContinental London Park Lane,1 Hamilton Place Park Lane Westminster Borough London W1J 7QY United Kingdom
United Kingdom,London,Intercontinental London The O2,1 Waterview Drive Greenwich London SE10 0TW United Kingdom
United Kingdom,London,Jumeirah Carlton Tower,Cadogan Place Kensington and Chelsea London SW1X 9PY United Kingdom
United Kingdom,London,Jumeirah Lowndes Hotel,Lowndes Street Kensington and Chelsea London SW1X 9ES United Kingdom
United Kingdom,London,K K Hotel George,1 15 Templeton Place Earl s Court Kensington and Chelsea London SW5 9NB United Kingdom
United Kingdom,London,K West Hotel Spa,Richmond Way Hammersmith and Fulham London W14 0AX United Kingdom
United Kingdom,London,Karma Sanctum Soho Hotel,20 Warwick Street Westminster Borough London W1B 5NF United Kingdom
United Kingdom,London,Kensington House Hotel,15 16 Prince Of Wales Terrace Kensington and Chelsea London W8 5PQ United Kingdom
United Kingdom,London,Kingsway Hall Hotel,66 Great Queen Street Covent Garden Camden London WC2B 5BX United Kingdom
United Kingdom,London,Knightsbridge Hotel,10 Beaufort Gardens Kensington and Chelsea London SW3 1PT United Kingdom
United Kingdom,London,Lancaster London,Lancaster Terrace Westminster Borough London W2 2TY United Kingdom
United Kingdom,London,Landmark London,222 Marylebone Road Westminster Borough London NW1 6JQ United Kingdom
United Kingdom,London,Le Meridien Piccadilly,21 Piccadilly Westminster Borough London W1J 0BH United Kingdom
United Kingdom,London,London City Suites,42 46 Chiswell Street City of London London EC1Y 4SB United Kingdom
United Kingdom,London,London Elizabeth Hotel,Lancaster Terrace Hyde Park Westminster Borough London W2 3PF United Kingdom
United Kingdom,London,London Hilton on Park Lane,22 Park Lane Westminster Borough London W1K 1BE United Kingdom
United Kingdom,London,London Marriott Hotel Grosvenor Square,Grosvenor Square Westminster Borough London W1K 6JP United Kingdom
United Kingdom,London,London Marriott Hotel Kensington,147 Cromwell Road Kensington and Chelsea London SW5 0TH United Kingdom
United Kingdom,London,London Marriott Hotel Marble Arch,134 George Street Westminster Borough London W1H 5DN United Kingdom
United Kingdom,London,London Marriott Hotel Park Lane,140 Park Lane Westminster Borough London W1K 7AA United Kingdom
United Kingdom,London,London Marriott Hotel Regents Park,128 King Henry s Road Camden London NW3 3ST United Kingdom
United Kingdom,London,London Marriott Hotel West India Quay,22 Hertsmere Road Tower Hamlets London E14 4ED United Kingdom
United Kingdom,London,London Marriott Maida Vale,Plaza Parade Camden London NW6 5RP United Kingdom
United Kingdom,London,M by Montcalm Shoreditch London Tech City,151 157 City Road Shoreditch Islington London EC1V 1JS United Kingdom
United Kingdom,London,ME London by Melia,336 337 Strand London Westminster Borough London WC2R 1HA United Kingdom
United Kingdom,London,Malmaison London,18 21 Charterhouse Square Islington London EC1M 6AH United Kingdom
United Kingdom,London,Mandarin Oriental Hyde Park London,66 Knightsbridge Westminster Borough London SW1X 7LA United Kingdom
United Kingdom,London,Marlin Waterloo,111 Westminster Bridge Road Lambeth London SE1 7JD United Kingdom
United Kingdom,London,Mayflower Hotel Apartments,26 28 Trebovir Rd Kensington and Chelsea London SW5 9NJ United Kingdom
United Kingdom,London,Megaro Hotel,Belgrove Street Camden London WC1H 8AB United Kingdom
United Kingdom,London,Melia White House Hotel,Albany Street London NW1 3UP United Kingdom
United Kingdom,London,Mercure London Bloomsbury Hotel,130 134 Southampton Row Camden London WC1B 5AF United Kingdom
United Kingdom,London,Mercure London Bridge,71 79 Southwark Street Southwark London SE1 0JA United Kingdom
United Kingdom,London,Mercure London Hyde Park,8 14 Talbot Sq Paddington Westminster Borough London W2 1TS United Kingdom
United Kingdom,London,Mercure London Kensington Hotel,1a Lexham Gardens Kensington and Chelsea London W8 5JJ United Kingdom
United Kingdom,London,Mercure London Paddington Hotel,144 Praed St Paddington Westminster Borough London W2 1HU United Kingdom
United Kingdom,London,Millennium Copthorne Hotels at Chelsea Football Club,Fulham Road Stamford Bridge Hammersmith and Fulham London SW6 1HS United Kingdom
United Kingdom,London,Millennium Gloucester Hotel London,4 18 Harrington Gardens Kensington and Chelsea London SW7 4LH United Kingdom
United Kingdom,London,Millennium Hotel London Knightsbridge,17 25 Sloane Street Knightsbridge Kensington and Chelsea London SW1X 9NU United Kingdom
United Kingdom,London,Millennium Hotel London Mayfair,44 Grosvenor Square Westminster Borough London W1K 2HP United Kingdom
United Kingdom,London,Mimi s Hotel Soho,56 57 Frith Street Westminster Borough London W1D 3JG United Kingdom
United Kingdom,London,Mondrian London,20 Upper Ground Southwark London SE1 9PD United Kingdom
United Kingdom,London,Montagu Place Hotel,2 Montagu Place Westminster Borough London W1H 2ER United Kingdom
United Kingdom,London,Montcalm Royal London House City of London,22 25 Finsbury Square City Islington London EC2A 1DX United Kingdom
United Kingdom,London,My Bloomsbury,11 13 Bayley Street Bedford Square Camden London WC1B 3HD United Kingdom
United Kingdom,London,My Chelsea,35 Ixworth Place Kensington and Chelsea London SW3 3QX United Kingdom
United Kingdom,London,NH London Kensington,202 220 Cromwell Road Kensington and Chelsea London SW5 0SW United Kingdom
United Kingdom,London,New Linden Hotel,59 Leinster Square Kensington and Chelsea London W2 4PS United Kingdom
United Kingdom,London,Norfolk Towers Paddington,34 Norfolk Place Paddington Westminster Borough London W2 1QW United Kingdom
United Kingdom,London,Nottingham Place Hotel,37 Nottingham Place Westminster Borough London W1U 5LT United Kingdom
United Kingdom,London,Novotel London Blackfriars,46 Blackfriars Road Southwark London SE1 8NZ United Kingdom
United Kingdom,London,Novotel London Canary Wharf,40 Marsh Wall Tower Hamlets London E14 9TP United Kingdom
United Kingdom,London,Novotel London City South,53 61 Southwark Bridge Road Southwark London SE1 9HH United Kingdom
United Kingdom,London,Novotel London Excel,7 Western Gateway Royal Victoria Dock Newham London E16 1AA United Kingdom
United Kingdom,London,Novotel London Greenwich,173 185 Greenwich High Rd Greenwich London SE10 8JA United Kingdom
United Kingdom,London,Novotel London Paddington,3 Kingdom Street Sheldon Square Westminster Borough London W2 6BD United Kingdom
United Kingdom,London,Novotel London Tower Bridge,10 Pepys Street City of London London EC3N 2NR United Kingdom
United Kingdom,London,Novotel London Waterloo,113 Lambeth Rd Lambeth London SE1 7LS United Kingdom
United Kingdom,London,Novotel London Wembley,5 Olympic Way Wembley Brent London HA9 0NP United Kingdom
United Kingdom,London,Novotel London West,1 Shortlands Hammersmith and Fulham London W6 8DR United Kingdom
United Kingdom,London,Number Sixteen,16 Sumner Place Kensington and Chelsea London SW7 3EG United Kingdom
United Kingdom,London,Old Ship Inn Hackney,2 Sylvester Path Hackney London E8 1EN United Kingdom
United Kingdom,London,One Aldwych,1 Aldwych Westminster Borough London WC2B 4BZ United Kingdom
United Kingdom,London,Paddington Court Executive Rooms,3 Devonshire Terrace Westminster Borough London W2 3DN United Kingdom
United Kingdom,London,Park Avenue Baker Street,173 Gloucester Place Westminster Borough London NW1 6DX United Kingdom
United Kingdom,London,Park Grand London Hyde Park,78 82 Westbourne Terrace Westminster Borough London W2 6QA United Kingdom
United Kingdom,London,Park Grand London Kensington,33 37 Hogarth Road Kensington and Chelsea London SW5 0QQ United Kingdom
United Kingdom,London,Park Grand London Lancaster Gate,14 16 Craven Hill Lancaster Gate Westminster Borough London W2 3DU United Kingdom
United Kingdom,London,Park Grand Paddington Court,27 Devonshire Terrace Westminster Borough London W2 3DP United Kingdom
United Kingdom,London,Park International Hotel,117 129 Cromwell Road Kensington and Chelsea London SW7 4DS United Kingdom
United Kingdom,London,Park Lane Mews Hotel,2 Stanhope Row Park Lane Westminster Borough London W1J 7BS United Kingdom
United Kingdom,London,Park Plaza County Hall London,1 Addington Street Lambeth London SE1 7RY United Kingdom
United Kingdom,London,Park Plaza London Riverbank,18 Albert Embankment Lambeth London SE1 7TJ United Kingdom
United Kingdom,London,Park Plaza London Waterloo,6 Hercules Road Lambeth London SE1 7DP United Kingdom
United Kingdom,London,Park Plaza Sherlock Holmes London,108 Baker Street Westminster Borough London W1U 6LJ United Kingdom
United Kingdom,London,Park Plaza Victoria London,239 Vauxhall Bridge Road Westminster Borough London SW1V 1EQ United Kingdom
United Kingdom,London,Park Plaza Westminster Bridge London,Westminster Bridge Road Lambeth London SE1 7UT United Kingdom
United Kingdom,London,Pestana Chelsea Bridge Hotel Spa,354 Queenstown Road Battersea London SW8 4AE United Kingdom
United Kingdom,London,Portobello House,225 Ladbroke Grove Kensington and Chelsea London W10 6HQ United Kingdom
United Kingdom,London,Pullman London St Pancras,100 110 Euston Road Camden London NW1 2AJ United Kingdom
United Kingdom,London,Radisson Blu Edwardian Berkshire,350 Oxford Street Westminster Borough London W1C 1BY United Kingdom
United Kingdom,London,Radisson Blu Edwardian Bloomsbury Street,9 13 Bloomsbury Street Nr Covent Garden Camden London WC1B 3QD United Kingdom
United Kingdom,London,Radisson Blu Edwardian Grafton,130 Tottenham Court Road Camden London W1T 5AY United Kingdom
United Kingdom,London,Radisson Blu Edwardian Hampshire,31 36 Leicester Square Westminster Borough London WC2H 7LH United Kingdom
United Kingdom,London,Radisson Blu Edwardian Kenilworth,97 Great Russell Street Bloomsbury Camden London WC1B 3LB United Kingdom
United Kingdom,London,Radisson Blu Edwardian Mercer Street,20 Mercer Street Covent Garden Camden London WC2H 9HD United Kingdom
United Kingdom,London,Radisson Blu Edwardian New Providence Wharf,5 Fairmont Avenue Canary Wharf Tower Hamlets London E14 9JB United Kingdom
United Kingdom,London,Radisson Blu Edwardian Sussex,19 25 Granville Place Marble Arch Westminster Borough London W1H 6PA United Kingdom
United Kingdom,London,Radisson Blu Edwardian Vanderbilt,68 86 Cromwell Road Kensington Kensington and Chelsea London SW7 5BT United Kingdom
United Kingdom,London,Radisson Blu Portman Hotel London,22 Portman Square Westminster Borough London W1H 7BG United Kingdom
United Kingdom,London,Rafayel Hotel Spa,34 Lombard Road Battersea London SW11 3RF United Kingdom
United Kingdom,London,Rathbone,30 Rathbone Street West End Westminster Borough London W1T 1LB United Kingdom
United Kingdom,London,Rocco Forte Brown s Hotel,33 Albemarle Street Mayfair Westminster Borough London W1S 4BP United Kingdom
United Kingdom,London,Rosewood London,252 High Holborn Holborn Camden London WC1V 7EN United Kingdom
United Kingdom,London,Royal Garden Hotel,2 24 Kensington High St Kensington and Chelsea London W8 4PT United Kingdom
United Kingdom,London,Rubens At The Palace,39 Buckingham Palace Road Westminster Borough London SW1W 0PS United Kingdom
United Kingdom,London,Rydges Kensington Hotel,61 Gloucester Road Kensington and Chelsea London SW7 4PE United Kingdom
United Kingdom,London,Saint Georges Hotel,14 15 Langham Place Westminster Borough London W1B 2QS United Kingdom
United Kingdom,London,San Domenico House,29 31 Draycott Place Kensington and Chelsea London SW3 2SH United Kingdom
United Kingdom,London,Sanderson A Morgans Hotel,50 Berners Street Westminster Borough London W1T 3NG United Kingdom
United Kingdom,London,Seraphine Kensington Gardens Hotel,7 9 High Street Kensington Kensington and Chelsea London W8 5NP United Kingdom
United Kingdom,London,Shaftesbury Hyde Park International,52 56 Inverness Terrace Westminster Borough London W2 3LB United Kingdom
United Kingdom,London,Shaftesbury Metropolis London Hyde Park,78 84 Sussex Gardens Westminster Borough London W2 1UH United Kingdom
United Kingdom,London,Shaftesbury Premier London Paddington,55 61 Westbourne Terrace Westminster Borough London W2 3UY United Kingdom
United Kingdom,London,Shaftesbury Suites London Marble Arch,41 Great Cumberland Place Westminster Borough London W1H 7LG United Kingdom
United Kingdom,London,Shangri La Hotel at The Shard London,31 St Thomas Street Southwark London SE1 9QU United Kingdom
United Kingdom,London,Shepherd s Bush Boutique Hotel,11 12 Poplar Mews Shepherd s Bush Hammersmith and Fulham London W12 7JS United Kingdom
United Kingdom,London,Sofitel London St James,6 Waterloo Place Westminster Borough London SW1Y 4AN United Kingdom
United Kingdom,London,South Place Hotel,3 South Place City of London London EC2M 2AF United Kingdom
United Kingdom,London,St Ermin s Hotel Autograph Collection,2 Caxton Street Westminster Borough London SW1H 0QW United Kingdom
United Kingdom,London,St George Hotel,49 Gloucester Place Marble Arch Westminster Borough London W1U 8JE United Kingdom
United Kingdom,London,St George s Hotel Wembley,43 51 Wembley Hill Road Brent London HA9 8AU United Kingdom
United Kingdom,London,St James Court A Taj Hotel London,41 54 Buckingham Gate Westminster Borough London SW1E 6AF United Kingdom
United Kingdom,London,St James Hotel Club Mayfair,7 8 Park Place Westminster Borough London SW1A 1LP United Kingdom
United Kingdom,London,St Martins Lane A Morgans Original,45 St Martin s Lane Westminster Borough London WC2N 4HX United Kingdom
United Kingdom,London,St Pancras Renaissance Hotel London,Euston Road Camden London NW1 2AR United Kingdom
United Kingdom,London,St Paul s Hotel,153 Hammersmith Road Hammersmith and Fulham London W14 0QL United Kingdom
United Kingdom,London,Staunton Hotel B B,13 15 Gower Street Camden London WC1E 6HE United Kingdom
United Kingdom,London,Staybridge Suites London Stratford,10b Chestnut Plaza Westfield Stratford City Olympic Park Newham London E20 1GL United Kingdom
United Kingdom,London,Staybridge Suites London Vauxhall,100 Vauxhall Walk Lambeth London SE11 5AL United Kingdom
United Kingdom,London,Strand Palace Hotel,372 Strand Westminster Borough London WC2R 0JJ United Kingdom
United Kingdom,London,Sydney House Chelsea,9 11 Sydney Street Kensington and Chelsea London SW3 6PU United Kingdom
United Kingdom,London,Ten Manchester Street Hotel,8 12 Manchester Street Westminster Borough London W1U 4DG United Kingdom
United Kingdom,London,The Abbey Court Notting Hill,20 Pembridge Gardens Kensington and Chelsea London W2 4DU United Kingdom
United Kingdom,London,The Academy,21 Gower Street Camden London WC1E 6HG United Kingdom
United Kingdom,London,The Ampersand Hotel,10 Harrington Road Kensington and Chelsea London SW7 3ER United Kingdom
United Kingdom,London,The Arch London,50 Great Cumberland Place Westminster Borough London W1H 7FD United Kingdom
United Kingdom,London,The Athenaeum,116 Piccadilly Westminster Borough London W1J 7BJ United Kingdom
United Kingdom,London,The Bailey s Hotel London,140 Gloucester Road Kensington and Chelsea London SW7 4QH United Kingdom
United Kingdom,London,The Beaumont Hotel,8 Balderton Street Brown Hart Gardens Westminster Borough London W1K 6TF United Kingdom
United Kingdom,London,The Belgrave Hotel,80 86 Belgrave Road Westminster Borough London SW1V 2BJ United Kingdom
United Kingdom,London,The Bloomsbury Hotel,16 22 Great Russell Street Camden London WC1B 3NN United Kingdom
United Kingdom,London,The Bryson Hotel,124 Clerkenwell Rd Camden London EC1R 5DJ United Kingdom
United Kingdom,London,The Capital,Basil Street Knightsbridge Kensington and Chelsea London SW3 1AT United Kingdom
United Kingdom,London,The Cavendish London,81 Jermyn Street Westminster Borough London SW1Y 6JF United Kingdom
United Kingdom,London,The Chamberlain,130 135 Minories City of London London EC3N 1NU United Kingdom
United Kingdom,London,The Chelsea Harbour Hotel,Chelsea Harbour Hammersmith and Fulham London SW10 0XG United Kingdom
United Kingdom,London,The Chesterfield Mayfair,35 Charles Street Mayfair Westminster Borough London W1J 5EB United Kingdom
United Kingdom,London,The Cleveland,39 40 Cleveland Square Westminster Borough London W2 6DA United Kingdom
United Kingdom,London,The Colonnade,2 Warrington Crescent Westminster Borough London W9 1ER United Kingdom
United Kingdom,London,The Cranley Hotel,10 Bina Gardens South Kensington Kensington and Chelsea London SW5 0LA United Kingdom
United Kingdom,London,The Cumberland A Guoman Hotel,Great Cumberland Place Westminster Borough London W1H 7DL United Kingdom
United Kingdom,London,The Dorchester Dorchester Collection,53 Park Lane Westminster Borough London W1K 1QA United Kingdom
United Kingdom,London,The Drayton Court Hotel,2 The Avenue Ealing London W13 8PH United Kingdom
United Kingdom,London,The Exhibitionist Hotel,8 10 Queensberry Place Kensington and Chelsea London SW7 2EA United Kingdom
United Kingdom,London,The Gore Hotel Starhotels Collezione,190 Queen s Gate Kensington and Chelsea London SW7 5EX United Kingdom
United Kingdom,London,The Goring,15 Beeston Place Westminster Borough London SW1W 0JW United Kingdom
United Kingdom,London,The Grand at Trafalgar Square,8 Northumberland Avenue Westminster Borough London WC2N 5BY United Kingdom
United Kingdom,London,The Grosvenor,101 Buckingham Palace Road Westminster Borough London SW1W 0SJ United Kingdom
United Kingdom,London,The Hari London,20 Chesham Place Kensington and Chelsea London SW1X 8HQ United Kingdom
United Kingdom,London,The Hoxton Holborn,199 206 High Holborn Camden London WC1V 7BD United Kingdom
United Kingdom,London,The Hoxton Shoreditch,81 Great Eastern Street Islington London EC2A 3HU United Kingdom
United Kingdom,London,The Justin James Hotel,43 Worple Road Wimbledon London SW19 4JZ United Kingdom
United Kingdom,London,The Kensington Hotel,109 113 Queen s Gate Kensington and Chelsea London SW7 5LR United Kingdom
United Kingdom,London,The Lanesborough,Hyde Park Corner Westminster Borough London SW1X 7TA United Kingdom
United Kingdom,London,The Langham London,Portland Place Westminster Borough London W1B 1JA United Kingdom
United Kingdom,London,The Laslett,8 Pembridge Garden Kensington and Chelsea London W2 4DU United Kingdom
United Kingdom,London,The Leonard Hotel,15 Seymour Street Westminster Borough London W1H 7JW United Kingdom
United Kingdom,London,The Lodge Hotel Putney,52 54 Upper Richmond Road Wandsworth London SW15 2RN United Kingdom
United Kingdom,London,The London EDITION,10 Berners Street Westminster Borough London W1T 3NP United Kingdom
United Kingdom,London,The Mandeville Hotel,Mandeville Place Westminster Borough London W1U 2BE United Kingdom
United Kingdom,London,The Marble Arch London,31 Great Cumberland Place Westminster Borough London W1H 7TA United Kingdom
United Kingdom,London,The Marylebone Hotel,47 Welbeck Street Westminster Borough London W1G 8DN United Kingdom
United Kingdom,London,The May Fair Hotel,Stratton Street Mayfair Westminster Borough London W1J 8LT United Kingdom
United Kingdom,London,The Montague On The Gardens,15 Montague St Bloomsbury Camden London WC1B 5BJ United Kingdom
United Kingdom,London,The Montcalm At Brewery London City,52 Chiswell Street City of London London EC1Y 4SD United Kingdom
United Kingdom,London,The Montcalm Marble Arch,2 Wallenberg Place Westminster Borough London W1H 7TN United Kingdom
United Kingdom,London,The Nadler Kensington,25 Courtfield Gardens Kensington and Chelsea London SW5 0PG United Kingdom
United Kingdom,London,The Nadler Soho,10 Carlisle Street Westminster Borough London W1D 3BR United Kingdom
United Kingdom,London,The Nadler Victoria,10 Palace Place Westminster Borough London SW1E 5BW United Kingdom
United Kingdom,London,The Park City Grand Plaza Kensington Hotel,18 30 Lexham Gardens Kensington and Chelsea London W8 5JE United Kingdom
United Kingdom,London,The Park Grand London Paddington,1 3 Queens Garden Westminster Borough London W2 3BA United Kingdom
United Kingdom,London,The Park Tower Knightsbridge a Luxury Collection Hotel,101 Knightsbridge Westminster Borough London SW1X 7RN United Kingdom
United Kingdom,London,The Pelham Starhotels Collezione,15 Cromwell Place Kensington and Chelsea London SW7 2LA United Kingdom
United Kingdom,London,The Piccadilly London West End,65 73 Shaftesbury Avenue Westminster Borough London W1D 6EX United Kingdom
United Kingdom,London,The Pillar Hotel,19 Brent Street Brent Cross London NW4 2EU United Kingdom
United Kingdom,London,The Portobello Hotel,22 Stanley Gardens Kensington and Chelsea London W11 2NG United Kingdom
United Kingdom,London,The Premier Notting Hill,5 7 Princes Square Kensington and Chelsea London W2 4NP United Kingdom
United Kingdom,London,The Principal London,1 8 Russell Square Camden London WC1B 5BE United Kingdom
United Kingdom,London,The Queens Gate Hotel,31 34 Queen s Gate Kensington and Chelsea London SW7 5JA United Kingdom
United Kingdom,London,The RE London Shoreditch,419 437 Hackney Road London E2 8PP United Kingdom
United Kingdom,London,The Rembrandt,11 Thurloe Place Knightsbridge Kensington and Chelsea London SW7 2RS United Kingdom
United Kingdom,London,The Ritz London,150 Piccadilly Westminster Borough London W1J 9BR United Kingdom
United Kingdom,London,The Rockwell,181 Cromwell Road Kensington and Chelsea London SW5 0SF United Kingdom
United Kingdom,London,The Rookery,Peters Lane Cowcross Street Islington London EC1M 6DS United Kingdom
United Kingdom,London,The Royal Horseguards,2 Whitehall Court Westminster Borough London SW1A 2EJ United Kingdom
United Kingdom,London,The Savoy,Strand Westminster Borough London WC2R 0EU United Kingdom
United Kingdom,London,The Soho Hotel,4 Richmond Mews Westminster Borough London W1D 3DH United Kingdom
United Kingdom,London,The Stafford London,St James s Place Westminster Borough London SW1A 1NJ United Kingdom
United Kingdom,London,The Sumner Hotel,54 Upper Berkeley Street Westminster Borough London W1H 7QR United Kingdom
United Kingdom,London,The Tophams Hotel,28 Ebury Street Westminster Borough London SW1W 0LU United Kingdom
United Kingdom,London,The Tower A Guoman Hotel,St Katherines Way Tower Hamlets London E1W 1LD United Kingdom
United Kingdom,London,The Trafalgar Hilton,2 Spring Gardens Trafalgar Square Westminster Borough London SW1A 2TS United Kingdom
United Kingdom,London,The Victoria,10 West Temple Sheen London SW14 7RT United Kingdom
United Kingdom,London,The Waldorf Hilton,Aldwych Westminster Borough London WC2B 4DD United Kingdom
United Kingdom,London,The Wellesley Knightsbridge a Luxury Collection Hotel London,11 Knightsbridge Westminster Borough London SW1X 7LY United Kingdom
United Kingdom,London,The Westbridge Hotel,335 337 High Street Stratford Newham London E15 2TF United Kingdom
United Kingdom,London,The Westbury A Luxury Collection Hotel Mayfair London,Bond Street Mayfair Westminster Borough London W1S 2YF United Kingdom
United Kingdom,London,The Whitechapel,49 53 New Road Tower Hamlets London E1 1HH United Kingdom
United Kingdom,London,The Zetter Hotel,86 88 Clerkenwell Road Islington London EC1M 5RJ United Kingdom
United Kingdom,London,The Zetter Townhouse Marylebone,28 30 Seymour Street Westminster Borough London W1H 7JB United Kingdom
United Kingdom,London,TheWesley,81 103 Euston Street Camden London NW1 2EZ United Kingdom
United Kingdom,London,Thistle Euston,Cardington Street Euston Camden London NW1 2LP United Kingdom
United Kingdom,London,Thistle Holborn The Kingsley,Bloomsbury Way Camden London WC1A 2SD United Kingdom
United Kingdom,London,Thistle Kensington Gardens,104 Bayswater Rd Westminster Borough London W2 3HL United Kingdom
United Kingdom,London,Thistle Trafalgar Square The Royal Trafalgar,Whitcomb Street Trafalgar Square Westminster Borough London WC2H 7HG United Kingdom
United Kingdom,London,Threadneedles Autograph Collection,5 Threadneedle Street City of London London EC2R 8AY United Kingdom
United Kingdom,London,Twenty Nevern Square Hotel,20 Nevern Square Kensington and Chelsea London SW5 9PD United Kingdom
United Kingdom,London,W London Leicester Square,10 Wardour Street Leicester Square Westminster Borough London W1D 6QF United Kingdom
United Kingdom,London,W12 Rooms,54 Uxbridge Road Shepherds Bush Hammersmith and Fulham London W12 8LP United Kingdom
United Kingdom,London,Washington Mayfair Hotel,5 Curzon St Westminster Borough London W1J 5HL United Kingdom
United Kingdom,London,Windermere Hotel,142 To 144 Warwick Way Victoria Westminster Borough London SW1V 4JE United Kingdom
United Kingdom,London,citizenM London Bankside,20 Lavington Street Southwark London SE1 0NZ United Kingdom
United Kingdom,London,citizenM London Shoreditch,6 Holywell Lane Hackney London EC2A 3ET United Kingdom
United Kingdom,London,citizenM Tower of London,40 trinity square City of London London EC3N 4DJ United Kingdom
United Kingdom,London,every hotel Piccadilly,39 Coventry Street Westminster Borough London W1D 6BZ United Kingdom
